{"fetched_at":"2026-07-06T08:46:41.354Z","source":"https://celestrak.org/NORAD/elements/gp.php?GROUP=planet&FORMAT=JSON","constellation":"superdove","records":[{"OBJECT_NAME":"FLOCK 4G-17","OBJECT_ID":"2025-009CA","EPOCH":"2026-07-05T04:29:36.741120","CLASSIFICATION_TYPE":"U","MEAN_MOTION":15.29933801,"ECCENTRICITY":0.0003318,"INCLINATION":97.3917,"RA_OF_ASC_NODE":267.4644,"ARG_OF_PERICENTER":259.1424,"MEAN_ANOMALY":100.9443,"EPHEMERIS_TYPE":0,"NORAD_CAT_ID":62681,"ELEMENT_SET_NO":999,"REV_AT_EPOCH":13930,"BSTAR":0.00066442,"MEAN_MOTION_DOT":0.0001921,"MEAN_MOTION_DDOT":0},{"OBJECT_NAME":"FLOCK 4G-33","OBJECT_ID":"2025-009CE","EPOCH":"2026-07-05T03:42:45.468288","CLASSIFICATION_TYPE":"U","MEAN_MOTION":15.25718139,"ECCENTRICITY":0.0003984,"INCLINATION":97.3939,"RA_OF_ASC_NODE":265.821,"ARG_OF_PERICENTER":259.5793,"MEAN_ANOMALY":100.4997,"EPHEMERIS_TYPE":0,"NORAD_CAT_ID":62685,"ELEMENT_SET_NO":999,"REV_AT_EPOCH":8154,"BSTAR":0.00041286,"MEAN_MOTION_DOT":0.00010461,"MEAN_MOTION_DDOT":0},{"OBJECT_NAME":"FLOCK 4H-1","OBJECT_ID":"2025-276AQ","EPOCH":"2026-07-05T03:28:39.868896","CLASSIFICATION_TYPE":"U","MEAN_MOTION":15.20761721,"ECCENTRICITY":0.0000967,"INCLINATION":97.4169,"RA_OF_ASC_NODE":259.5483,"ARG_OF_PERICENTER":207.7241,"MEAN_ANOMALY":152.3943,"EPHEMERIS_TYPE":0,"NORAD_CAT_ID":66704,"ELEMENT_SET_NO":999,"REV_AT_EPOCH":3316,"BSTAR":0.00051056,"MEAN_MOTION_DOT":0.00011183,"MEAN_MOTION_DDOT":0},{"OBJECT_NAME":"FLOCK 4H-3","OBJECT_ID":"2025-276AS","EPOCH":"2026-07-05T04:05:24.823680","CLASSIFICATION_TYPE":"U","MEAN_MOTION":15.20156304,"ECCENTRICITY":0.0002471,"INCLINATION":97.4233,"RA_OF_ASC_NODE":259.5474,"ARG_OF_PERICENTER":307.9795,"MEAN_ANOMALY":52.1217,"EPHEMERIS_TYPE":0,"NORAD_CAT_ID":66706,"ELEMENT_SET_NO":999,"REV_AT_EPOCH":3315,"BSTAR":0.00048886,"MEAN_MOTION_DOT":0.00010517,"MEAN_MOTION_DDOT":0},{"OBJECT_NAME":"FLOCK 4H-4","OBJECT_ID":"2025-276AT","EPOCH":"2026-07-05T03:20:33.925056","CLASSIFICATION_TYPE":"U","MEAN_MOTION":15.19939845,"ECCENTRICITY":0.0003153,"INCLINATION":97.4217,"RA_OF_ASC_NODE":259.3892,"ARG_OF_PERICENTER":307.9719,"MEAN_ANOMALY":52.1231,"EPHEMERIS_TYPE":0,"NORAD_CAT_ID":66707,"ELEMENT_SET_NO":999,"REV_AT_EPOCH":3314,"BSTAR":0.00057038,"MEAN_MOTION_DOT":0.00012208,"MEAN_MOTION_DDOT":0},{"OBJECT_NAME":"FLOCK 4H-5","OBJECT_ID":"2025-276AU","EPOCH":"2026-07-05T04:52:46.569792","CLASSIFICATION_TYPE":"U","MEAN_MOTION":15.20819833,"ECCENTRICITY":0.0000871,"INCLINATION":97.4167,"RA_OF_ASC_NODE":259.626,"ARG_OF_PERICENTER":127.313,"MEAN_ANOMALY":232.8185,"EPHEMERIS_TYPE":0,"NORAD_CAT_ID":66708,"ELEMENT_SET_NO":999,"REV_AT_EPOCH":3317,"BSTAR":0.00051906,"MEAN_MOTION_DOT":0.0001139,"MEAN_MOTION_DDOT":0},{"OBJECT_NAME":"FLOCK 4H-6","OBJECT_ID":"2025-276AV","EPOCH":"2026-07-05T04:21:22.364640","CLASSIFICATION_TYPE":"U","MEAN_MOTION":15.20519761,"ECCENTRICITY":0.0001687,"INCLINATION":97.4218,"RA_OF_ASC_NODE":259.6462,"ARG_OF_PERICENTER":258.0243,"MEAN_ANOMALY":102.0803,"EPHEMERIS_TYPE":0,"NORAD_CAT_ID":66709,"ELEMENT_SET_NO":999,"REV_AT_EPOCH":3316,"BSTAR":0.00054597,"MEAN_MOTION_DOT":0.0001188,"MEAN_MOTION_DDOT":0},{"OBJECT_NAME":"FLOCK 4H-7","OBJECT_ID":"2025-276AW","EPOCH":"2026-07-05T03:52:59.659104","CLASSIFICATION_TYPE":"U","MEAN_MOTION":15.20285533,"ECCENTRICITY":0.0001527,"INCLINATION":97.4175,"RA_OF_ASC_NODE":259.3932,"ARG_OF_PERICENTER":6.2917,"MEAN_ANOMALY":353.8337,"EPHEMERIS_TYPE":0,"NORAD_CAT_ID":66710,"ELEMENT_SET_NO":999,"REV_AT_EPOCH":3315,"BSTAR":0.00053257,"MEAN_MOTION_DOT":0.00011507,"MEAN_MOTION_DDOT":0},{"OBJECT_NAME":"FLOCK 4H-8","OBJECT_ID":"2025-276AX","EPOCH":"2026-07-05T03:40:54.422688","CLASSIFICATION_TYPE":"U","MEAN_MOTION":15.20394962,"ECCENTRICITY":0.0002258,"INCLINATION":97.4215,"RA_OF_ASC_NODE":259.5277,"ARG_OF_PERICENTER":330.2933,"MEAN_ANOMALY":29.8174,"EPHEMERIS_TYPE":0,"NORAD_CAT_ID":66711,"ELEMENT_SET_NO":999,"REV_AT_EPOCH":3315,"BSTAR":0.00059632,"MEAN_MOTION_DOT":0.00012937,"MEAN_MOTION_DDOT":0},{"OBJECT_NAME":"FLOCK 4H-9","OBJECT_ID":"2025-276AY","EPOCH":"2026-07-05T04:03:37.426752","CLASSIFICATION_TYPE":"U","MEAN_MOTION":15.20691854,"ECCENTRICITY":0.0001797,"INCLINATION":97.4204,"RA_OF_ASC_NODE":259.6345,"ARG_OF_PERICENTER":270.8119,"MEAN_ANOMALY":89.2911,"EPHEMERIS_TYPE":0,"NORAD_CAT_ID":66712,"ELEMENT_SET_NO":999,"REV_AT_EPOCH":3316,"BSTAR":0.00053543,"MEAN_MOTION_DOT":0.00011708,"MEAN_MOTION_DDOT":0},{"OBJECT_NAME":"FLOCK 4H-10","OBJECT_ID":"2025-276AZ","EPOCH":"2026-07-05T04:33:38.026080","CLASSIFICATION_TYPE":"U","MEAN_MOTION":15.20069874,"ECCENTRICITY":0.0002968,"INCLINATION":97.4179,"RA_OF_ASC_NODE":259.3773,"ARG_OF_PERICENTER":310.1847,"MEAN_ANOMALY":49.9128,"EPHEMERIS_TYPE":0,"NORAD_CAT_ID":66713,"ELEMENT_SET_NO":999,"REV_AT_EPOCH":3315,"BSTAR":0.00055255,"MEAN_MOTION_DOT":0.00011868,"MEAN_MOTION_DDOT":0},{"OBJECT_NAME":"FLOCK 4H-11","OBJECT_ID":"2025-276BA","EPOCH":"2026-07-05T04:04:38.236800","CLASSIFICATION_TYPE":"U","MEAN_MOTION":15.23137216,"ECCENTRICITY":0.0001313,"INCLINATION":97.4187,"RA_OF_ASC_NODE":259.9022,"ARG_OF_PERICENTER":320.9174,"MEAN_ANOMALY":39.1968,"EPHEMERIS_TYPE":0,"NORAD_CAT_ID":66714,"ELEMENT_SET_NO":999,"REV_AT_EPOCH":3318,"BSTAR":0.0010649,"MEAN_MOTION_DOT":0.00025134,"MEAN_MOTION_DDOT":0},{"OBJECT_NAME":"FLOCK 4H-12","OBJECT_ID":"2025-276BB","EPOCH":"2026-07-05T03:45:14.154048","CLASSIFICATION_TYPE":"U","MEAN_MOTION":15.20719283,"ECCENTRICITY":0.000085,"INCLINATION":97.4177,"RA_OF_ASC_NODE":259.5609,"ARG_OF_PERICENTER":225.5878,"MEAN_ANOMALY":134.5288,"EPHEMERIS_TYPE":0,"NORAD_CAT_ID":66715,"ELEMENT_SET_NO":999,"REV_AT_EPOCH":3347,"BSTAR":0.00058507,"MEAN_MOTION_DOT":0.00012812,"MEAN_MOTION_DDOT":0},{"OBJECT_NAME":"FLOCK 4H-13","OBJECT_ID":"2025-276BC","EPOCH":"2026-07-05T04:38:37.118688","CLASSIFICATION_TYPE":"U","MEAN_MOTION":15.20823362,"ECCENTRICITY":0.0001161,"INCLINATION":97.4214,"RA_OF_ASC_NODE":259.7649,"ARG_OF_PERICENTER":151.7803,"MEAN_ANOMALY":208.3496,"EPHEMERIS_TYPE":0,"NORAD_CAT_ID":66716,"ELEMENT_SET_NO":999,"REV_AT_EPOCH":3317,"BSTAR":0.00035322,"MEAN_MOTION_DOT":0.00007726,"MEAN_MOTION_DDOT":0},{"OBJECT_NAME":"FLOCK 4H-14","OBJECT_ID":"2025-276BD","EPOCH":"2026-07-05T03:45:55.594080","CLASSIFICATION_TYPE":"U","MEAN_MOTION":15.21272057,"ECCENTRICITY":0.0001098,"INCLINATION":97.4195,"RA_OF_ASC_NODE":259.7711,"ARG_OF_PERICENTER":150.1643,"MEAN_ANOMALY":209.9655,"EPHEMERIS_TYPE":0,"NORAD_CAT_ID":66717,"ELEMENT_SET_NO":999,"REV_AT_EPOCH":3242,"BSTAR":0.00054673,"MEAN_MOTION_DOT":0.00012162,"MEAN_MOTION_DDOT":0}]}
